DIAMOND BLUE            
1 42786U 17036X   24105.06749184  .02527753  22590-5  13559-2 0  9994
2 42786  97.0912 145.4222 0008096 219.8602 140.2093 16.19841832379807
CICERO 6                
1 42793U 17036AE  24104.82726705  .00131869  00000+0  10752-2 0  9994
2 42793  97.0992 141.5341 0004796 103.6767 256.5030 15.70204043379633
CORVUS BC2              
1 42846U 17042X   24105.03767164  .00003540  00000+0  31230-3 0  9997
2 42846  97.3752 293.7418 0007308 275.9606  84.0784 14.96980649367841
CORVUS BC1              
1 42847U 17042Y   24105.07208959  .00004769  00000+0  41755-3 0  9991
2 42847  97.3753 294.1671 0006407 272.5441  87.5048 14.97129907367864
MIRATA                  
1 43015U 17073C   24104.63008685  .00023457  00000+0  11800-2 0  9990
2 43015  97.6036 350.2496 0180590 120.8377 241.0757 15.04042547346614
MAKERSAT 0              
1 43016U 17073D   24105.19990055  .00012295  00000+0  72425-3 0  9993
2 43016  97.5889 346.0283 0203765 137.3096 224.4164 14.95873944346336
CORVUS BC3              
1 43118U 18004H   24105.17533546  .00111682  00000+0  93793-3 0  9998
2 43118  97.2898 188.7612 0003964 137.9616 222.1951 15.69551980348815
GOMX-4B                 
1 43196U 18015E   24104.42768924  .00049885  00000+0  73600-3 0  9993
2 43196  97.6064 273.4970 0009861 193.0398 167.0602 15.55172332345431
GOMX-4A                 
1 43197U 18015F   24105.13698828  .00070299  00000+0  78178-3 0  9996
2 43197  97.5987 278.4654 0008552 184.3269 175.7916 15.62616348345831
CICERO 10               
1 43690U 18088A   24104.83089865  .00098695  00000+0  10993-2 0  9995
2 43690  85.0178 225.3152 0008464 180.2807 179.8453 15.62466645302109
PROXIMA I               
1 43694U 18088E   24104.74772624  .00226549  00000+0  12670-2 0  9996
2 43694  85.0090 218.7652 0004199 182.6906 177.4345 15.78732191302556
PROXIMA II              
1 43696U 18088G   24104.76477808  .00209447  00000+0  12363-2 0  9993
2 43696  85.0100 218.9130 0004003 177.7194 182.4097 15.77562233302547
SIRION PATHFINDER-2     
1 43759U 18099B   24104.68670097  .00005005  00000+0  38771-3 0  9997
2 43759  97.5382 162.6633 0014190 143.4467 216.7729 15.01784839292828
CORVUS BC4              
1 43767U 18099K   24104.89189677  .00005201  00000+0  40991-3 0  9993
2 43767  97.5212 160.2564 0008506 218.9898 141.0714 15.01157094292748
MOVE-II                 
1 43780U 18099Y   24104.40118384  .00016985  00000+0  97519-3 0  9991
2 43780  97.5264 168.1187 0007776 190.5563 169.5506 15.12572943293123
SPACEBEE-7              
1 43816U 18099BL  24104.15362336  .00010726  00000+0  67676-3 0  9999
2 43816  97.5537 168.7312 0011925 147.7566 212.4394 15.09221110292596
SPACEBEE-6              
1 43818U 18099BN  24104.67921534  .00027945  00000+0  13620-2 0  9999
2 43818  97.5461 173.6281 0010868 154.9598 205.2165 15.18245928293101
SHIELDS 1               
1 43850U 18104B   24105.11250447  .00011881  00000+0  34249-3 0  9993
2 43850  85.0236 326.5455 0009674 321.9507  38.1058 15.35532671296324
ZACUBE-2                
1 43907U 18111AH  24104.10688233  .00569777  13842-3  13560-2 0  9996
2 43907  97.0724 347.4729 0008104 163.5285 196.6257 15.96611749295958
SONATE                  
1 44400U 19038Q   24104.89452115  .00021893  00000+0  73259-3 0  9990
2 44400  97.7136  96.2761 0015841 342.3930  17.6759 15.30869268264231
LUCKY-7                 
1 44406U 19038W   24104.97091510  .00038230  00000+0  10047-2 0  9991
2 44406  97.7047  99.6365 0012153 329.5896  30.4642 15.38428674264476
BEESAT 9                
1 44412U 19038AC  24104.51716083  .00150583  00000+0  14703-2 0  9996
2 44412  97.6841 106.3782 0002161 291.2625  68.8403 15.65701565264615
JAISAT-1                
1 44419U 19038F   24104.98559655  .00157814  00000+0  16002-2 0  9992
2 44419  97.6830 107.9101 0001951 286.2343  73.8701 15.64724000265064
DUCHIFAT-3              
1 44854U 19089C   24105.20656092  .00016004  00000+0  87031-3 0  9996
2 44854  36.9586  76.7681 0010142 276.7501  83.2090 15.13782304238497
M2 PATHFINDER           
1 45727U 20037E   24104.47692508  .00003026  00000+0  27135-3 0  9990
2 45727  97.7740 281.2914 0010923 344.6156  15.4732 14.96485205206264
NETSAT-4                
1 46504U 20068U   24104.84702032  .00010802  00000+0  60811-3 0  9991
2 46504  97.8011  60.3522 0008755 211.6622 148.4082 15.13392384194437
NETSAT-3                
1 46505U 20068V   24104.80933794  .00010352  00000+0  59069-3 0  9992
2 46505  97.7987  59.8978 0007684 221.3448 138.7201 15.12929083194426
NETSAT-1                
1 46506U 20068W   24104.86183672  .00008082  00000+0  47917-3 0  9997
2 46506  97.8011  59.5582 0006242 232.5582 127.5080 15.11632115194401
NETSAT-2                
1 46507U 20068X   24104.86044581  .00010755  00000+0  60724-3 0  9994
2 46507  97.8000  60.0200 0005334 237.7562 122.3152 15.13307653194388
WILDTRACKCUBE-SIMBA     
1 47941U 21022K   24105.20209085  .00014071  00000+0  67001-3 0  9999
2 47941  97.4668   2.6175 0016682  15.9141 344.2615 15.19131088168740
BEESAT-6                
1 47957U 21022AB  24104.72096391  .00101154  00000+0  19721-2 0  9990
2 47957  97.4515  10.1909 0007737   9.2125 350.9265 15.47125581169025
SMOG-1                  
1 47964U 21022AJ  24104.94812484  .00089813  00000+0  17538-2 0  9992
2 47964  97.4691  13.4673 0005783 349.4132  10.6995 15.47137770168244
BCCSAT-1                
1 48041U 21022AK  24104.95808804  .00060261  00000+0  15771-2 0  9994
2 48041  97.4688  10.4281 0006681 349.9639  10.1471 15.38495232168024
BEESAT-5                
1 48083U 21022AM  24104.23081034  .00123630  00000+0  19693-2 0  9996
2 48083  97.4300  10.6011 0006124  13.4779 346.6637 15.52803379168183
BEESAT-7                
1 48084U 21022AN  24104.23237349  .00067686  00000+0  14563-2 0  9998
2 48084  97.4638   9.9700 0008119 358.7361   1.3865 15.44368814167685
BEESAT-8                
1 48085U 21022AP  24104.69081066  .00028886  00000+0  10576-2 0  9991
2 48085  97.4788   6.3062 0013267   7.7946 352.3497 15.27907762168014
LEDSAT                  
1 49069U 21073D   24105.15075943  .00017117  00000+0  74646-3 0  9993
2 49069  97.4413 176.8194 0021586 147.4938 212.7632 15.22022481146700
SITRO-AIS 5 (KATYS)     
1 57176U 23091L   24105.18552510  .00007050  00000+0  47236-3 0  9996
2 57176  97.6192 157.9570 0017185 344.8310  15.2400 15.07076415 43859
SITRO-AIS 6 (CHIRKIN)   
1 57192U 23091AC  24105.17328334  .00007915  00000+0  52892-3 0  9992
2 57192  97.6185 157.9652 0017062 343.9403  16.1282 15.07137952 43859
SITRO-AIS 8 (ANOKHIN)   
1 57193U 23091AD  24105.15283594  .00008744  00000+0  58025-3 0  9994
2 57193  97.6193 157.9857 0016779 345.6384  14.4364 15.07366013 43851
SITRO-AIS 7 (FARTUSHNIY)
1 57194U 23091AE  24105.17653419  .00007357  00000+0  49249-3 0  9991
2 57194  97.6184 157.9556 0016935 344.7551  15.3164 15.07098968 43857
SITRO-AIS 10 (BURDAEV)  
1 57199U 23091AK  24105.19728320  .00008383  00000+0  53276-3 0  9997
2 57199  97.6209 158.7469 0011447 335.8880  24.1811 15.09038949 43909
SITRO-AIS 9 (SHCHUKIN)  
1 57201U 23091AM  24105.12885050  .00007962  00000+0  50619-3 0  9998
2 57201  97.6202 158.6647 0011409 336.0249  24.0447 15.09042699 43892
SITRO-AIS 12 (SMIRENNIY)
1 57204U 23091AQ  24105.16539049  .00009494  00000+0  59984-3 0  9995
2 57204  97.6208 158.8067 0011396 328.2355  31.8185 15.09212765 43905
SITRO-AIS 11 (SHEFFER)  
1 57208U 23091AU  24105.15442305  .00009416  00000+0  59391-3 0  9992
2 57208  97.6210 158.8120 0011158 329.1435  30.9137 15.09279945 43907
SITRO-AIS B             
1 59052U 24039B   24105.16816082  .00020286  00000+0  82921-3 0  9995
2 59052  97.3885  67.8733 0022323  84.0474 276.3306 15.24160896  6832
SITRO-AIS C             
1 59053U 24039C   24105.16782050  .00021725  00000+0  88693-3 0  9994
2 59053  97.3882  67.8721 0022401  84.7395 275.6398 15.24186411  6826
SITRO-AIS 31            
1 59054U 24039D   24105.16542430  .00021547  00000+0  87740-3 0  9995
2 59054  97.3883  67.8751 0022257  84.7167 275.6610 15.24277487  6840
SITRO-AIS 33            
1 59055U 24039E   24105.16254591  .00022051  00000+0  89512-3 0  9994
2 59055  97.3885  67.8806 0022030  85.2751 275.1001 15.24382674  6831
SITRO-AIS F             
1 59056U 24039F   24105.16082047  .00020409  00000+0  82794-3 0  9990
2 59056  97.3884  67.8822 0021848  85.4380 274.9353 15.24423817  6837
SITRO-AIS G             
1 59057U 24039G   24105.16249726  .00021132  00000+0  85879-3 0  9991
2 59057  97.3885  67.8803 0021763  85.5288 274.8435 15.24358456  6838
SITRO-AIS 35            
1 59058U 24039H   24105.16153335  .00020344  00000+0  82555-3 0  9994
2 59058  97.3885  67.8827 0021956  85.4821 274.8924 15.24411160  6836
SITRO-AIS 36            
1 59059U 24039J   24105.15891851  .00022346  00000+0  90442-3 0  9994
2 59059  97.3885  67.8852 0021539  85.5423 274.8275 15.24489353  6839
SITRO-AIS 49            
1 59060U 24039K   24105.15822096  .00022109  00000+0  89439-3 0  9992
2 59060  97.3884  67.8858 0021502  85.5065 274.8629 15.24508607  6835
SITRO-AIS 50            
1 59061U 24039L   24105.15632822  .00021764  00000+0  87782-3 0  9994
2 59061  97.3883  67.8885 0021539  85.6106 274.7592 15.24610536  6835
SITRO-AIS 51            
1 59062U 24039M   24105.15548924  .00020928  00000+0  84394-3 0  9991
2 59062  97.3884  67.8897 0021446  85.4574 274.9113 15.24627067  6832
SITRO-AIS 52            
1 59063U 24039N   24105.15329480  .00022151  00000+0  89100-3 0  9996
2 59063  97.3883  67.8925 0021268  85.2696 275.0970 15.24703825  6839
SITRO-AIS 25            
1 59066U 24039R   24105.14662140  .00004084  00000+0  40134-3 0  9990
2 59066  95.3991  54.0351 0173495 202.4014 156.9565 14.81774368  6624
SITRO-AIS 26            
1 59067U 24039S   24105.14604572  .00004058  00000+0  39894-3 0  9998
2 59067  95.3990  54.0353 0173282 202.4332 156.9246 14.81786118  6625
